Address_1,Address_2,Locality,State,Postcode
58 Lakeview Avenue,,Rowville,Victoria,3178
220 VANDERLIN DR,,CASUARINA,NT,811
6 CABMAN COURT,,PALMERSTON,NT,830
3/8-10 LANCELOT ST,,ALLAWAH,VIC,2218
4 MAHOGANY CT,,BODDINGTON,VIC,2390
12 HIGH STREET,,JENNINGS,QLD,4383
17 GREENVALE CLOSE,,SMITHFIELD,NSW,2164
HOME ISLAND,,COCOS ISLAND,WA,6799
HOME ISLAND,,COCOS ISLANDS,WA,6799
HOME ISLAND,,HOME ISLAND COCOS (KEELING) ISLANDS,WA,6799
HOME ISLD HSE 75,,HOME ISLAND,WA,6799
HOUSE 112 HOME ISLAND,,COCOS ISLANDS,WA,6799
HOUSE 112 HOME ISLAND,,HOME ISLAND COCOS (KEELING) IS,WA,6799
HOUSE 112 HOME ISLAND,,HOME ISLAND COCOS (KEELING) ISLANDS,WA,6799
HOUSE 28 WEST ISLANDS,,HOME ISLAND COCOS (KEELING) IS,WA,6799
HOUSE 3 HOME ISLAND,,HOME ISLAND COCOS (KEELIN,WA,6799
HOUSE 3 HOME ISLAND,,COCOS ISLANDS,WA,6799
HOUSE 30 HOME ISLAND,,COCOS ISLANDS,WA,6799
HOUSE 31 HOME ISLAND,,HOME ISLAND COCOS (KEELING) ISLANDS,WA,6799
HOUSE 31,, HOME ISLAND,,WA
HOUSE 36 HOME ISLAND  HOME ISLAND COCOS (KEELING) ISLANDS,,,WA,6799
HOUSE 39 HOME ISLAND,,COCOS (KEELING) ISLANDS,WA,6799
HOUSE 44 HOME ISLAND,,COCOS ISLANDS,WA,6799
HOUSE 51 HOME ISLAND,,HOME ISLAND COCOS (KEELING) ISLANDS,WA,6799
HOUSE 59 HOME ISLAND,,COCOS ISLANDS,WA,6799
HOUSE 59 HOME ISLAND,,HOME ISLAND COCOS (KEELING) ISLANDS,WA,6799
HOUSE 6 HOME ISLAND,,HOME ISLAND COCOS (KEELIN,WA,6799
HOUSE 6 HOME ISLAND,,COCOS ISLANDS,WA,6799
HOUSE 6 HOME ISLAND,,HOME ISLAND COCOS (KEELING) ISLANDS,WA,6799
HOUSE 6,HOME ISLAND,HOME ISLAND COCOS (KEELING) ISLANDS,WA,6799
HOUSE 6,,HOME ISLAND COCOS (KEELING) ISLANDS,WA,6799
HOUSE 70 HOME ISLAND,,COCOS ISLANDS,WA,6799
HOUSE 70 HOME ISLAND,,HOME ISLAND COCOS (KEELING) IS,WA,6799
HOUSE 75 HOME ISLAND,,COCOS (KEELING) ISLANDS,WA,6799
HOUSE 97,,HOME ISLAND COCOS (KEELIN,,6799
HOUSE NO 52 HOME ISLAND,,COCOS ISLANDS,WA,6799
HOUSE NO 58 HOME ISLAND,,CHRISTMAS ISLAND,WA,6798
HSE 1 HOME ISLAND COCOS KEELING ISLANDS,,COCOS ISLANDS,WA ,6799
HSE 1 HOME ISLAND COCOS KEELING ISLANDS,,COCOS ISLANDS,WA,6799
HSE 1 HOME ISLAND,COCOS KEELING ISLANDS,COCOS ISLANDS,WA,6799
HSE 14 JALAN BUNGA MAWAR HOME ISLAND,,COCOS ISLANDS,WA,6799
HSE 14 JALAN BUNGA MAWAR,HOME ISLAND,COCOS ISLANDS,WA,6799
HSE 19 HOME ISLAND,,COCOS ISLANDS,WA,6799
HSE 3 HOME ISLAND,COCOS-KEELING ISLANDS,COCOS ISLANDS,WA,6799
HSE 39 HOME ISLAND COCOS KEELING ISLANDS,,COCOS ISLANDS,WA ,6799
HSE 39 HOME ISLAND,COCOS KEELING ISLANDS,COCOS ISLANDS,WA,6799
HSE 52 HOME ISLAND,,COCOS ISLANDS,WA,6799
HSE 58 HOME ISLAND,,CHRISTMAS ISLAND,WA,6798
HSE 97,,HOME ISLAND,WA ,6799
